OBJECT_NAME,OBJECT_ID,EPOCH,MEAN_MOTION,ECCENTRICITY,INCLINATION,RA_OF_ASC_NODE,ARG_OF_PERICENTER,MEAN_ANOMALY,EPHEMERIS_TYPE,CLASSIFICATION_TYPE,NORAD_CAT_ID,ELEMENT_SET_NO,REV_AT_EPOCH,BSTAR,MEAN_MOTION_DOT,MEAN_MOTION_DDOT
GSAT0216 (GALILEO 20),2017-079B,2026-07-13T02:47:25.425600,1.70474456,.000487,55.0684,220.7928,277.1661,82.8538,0,U,43056,999,5344,0,.78E-6,0
GSAT0217 (GALILEO 21),2017-079C,2026-07-13T08:05:22.969824,1.70474139,.0005107,55.0666,220.7845,288.0237,71.9947,0,U,43057,999,5343,0,.76E-6,0
GSAT0218 (GALILEO 22),2017-079D,2026-07-11T19:08:16.366560,1.70474392,.0005348,55.0670,220.8245,274.4620,85.5568,0,U,43058,999,5343,0,.87E-6,0
BEIDOU-3 M7 (C27),2018-003A,2026-07-13T02:59:29.125824,1.86228142,.00044768,54.3033,301.4109,98.5255,261.5490,0,U,43107,999,5783,0,-.66E-6,0
BEIDOU-3 M8 (C28),2018-003B,2026-07-13T01:39:22.406112,1.86231001,.0003023,54.2962,301.3941,257.8979,102.0921,0,U,43108,999,5784,0,-.66E-6,0
BEIDOU-3 M4 (C22),2018-018A,2026-07-12T23:24:21.451392,1.86230771,.0007448,56.6736,62.2990,28.6895,331.4231,0,U,43207,999,5722,0,-.39E-6,0
BEIDOU-3 M3 (C21),2018-018B,2026-07-13T01:00:06.780960,1.86230649,.0007681,56.6731,62.3007,347.0461,13.0059,0,U,43208,999,5722,0,-.39E-6,0
BEIDOU-3 M9 (C29),2018-029A,2026-07-13T06:13:59.204064,1.86228102,.0001282,54.1685,299.0366,186.5428,173.4840,0,U,43245,999,5638,0,-.62E-6,0
BEIDOU-3 M10 (C30),2018-029B,2026-07-12T15:46:02.703936,1.86229210,.0003281,54.1670,299.0845,37.0927,322.9562,0,U,43246,999,5635,0,-.62E-6,0
IRNSS-1I,2018-035A,2026-07-06T20:05:50.528832,1.00279237,.00180874,28.7973,73.8917,180.4002,27.0525,0,U,43286,999,3027,0,.79E-6,0
COSMOS 2527 (756),2018-053A,2026-07-11T22:56:03.040800,2.13102171,.000656,65.5909,73.0818,230.8216,129.1867,0,U,43508,999,6280,0,-.17E-6,0
BEIDOU-2 IGSO-7 (C16),2018-057A,2026-07-01T21:23:21.693984,1.00246939,.01049468,55.1981,162.9292,237.8611,308.6338,0,U,43539,999,2927,0,-.33E-6,0
GSAT0221 (GALILEO 25),2018-060A,2026-07-13T11:04:09.198912,1.70476034,.0002647,57.1602,341.0717,286.2656,73.6918,0,U,43564,999,4961,0,-.94E-6,0
GSAT0222 (GALILEO 26),2018-060B,2026-07-11T22:06:28.605024,1.70475789,.000273,57.1642,341.1170,235.5377,124.4270,0,U,43565,999,4963,0,-.87E-6,0
GSAT0219 (GALILEO 23),2018-060C,2026-07-12T03:24:30.782880,1.70476011,.00017989,57.1635,341.1125,300.6290,59.3431,0,U,43566,999,4961,0,-.88E-6,0
GSAT0220 (GALILEO 24),2018-060D,2026-07-12T22:47:26.232288,1.70475641,.0002125,57.1627,341.0908,291.6687,68.2962,0,U,43567,999,4961,0,-.92E-6,0
BEIDOU-3 M5 (C23),2018-062A,2026-07-12T08:15:17.978112,1.86228464,.00056966,54.0867,181.4489,292.2984,67.6347,0,U,43581,999,5410,0,.77E-6,0
BEIDOU-3 M6 (C24),2018-062B,2026-07-13T06:45:17.260992,1.86227719,.0005201,54.0859,181.4064,9.6286,350.3672,0,U,43582,999,5412,0,.61E-6,0
BEIDOU-3 M12 (C26),2018-067A,2026-07-13T05:16:37.991424,1.86227609,.0007896,54.1816,180.1576,30.2072,329.8221,0,U,43602,999,5360,0,.6E-6,0
BEIDOU-3 M11 (C25),2018-067B,2026-07-12T06:44:47.960160,1.86227116,.0004603,54.1790,180.1532,13.4814,346.5223,0,U,43603,999,5361,0,.76E-6,0
BEIDOU-3 M13 (C32),2018-072A,2026-07-12T05:39:36.016128,1.86231242,.0006239,56.6459,61.8341,333.8913,26.1465,0,U,43622,999,5312,0,-.41E-6,0
BEIDOU-3 M14 (C33),2018-072B,2026-07-13T04:12:15.175296,1.86231289,.0005544,56.6490,61.7972,10.9566,349.1278,0,U,43623,999,5313,0,-.39E-6,0
BEIDOU-3 M16 (C35),2018-078A,2026-07-13T07:55:22.901088,1.86232180,.000665,54.0645,299.0690,39.9150,320.1624,0,U,43647,999,5264,0,-.62E-6,0
BEIDOU-3 M15 (C34),2018-078B,2026-07-13T11:01:31.607040,1.86232304,.0003562,54.0601,299.0647,57.9247,302.1389,0,U,43648,999,5266,0,-.62E-6,0
BEIDOU-3 G1 (C59),2018-085A,2026-07-13T12:42:44.744256,1.00272569,.0008034,2.9315,96.6658,355.8886,189.4935,0,U,43683,999,2832,0,-.116E-5,0
COSMOS 2529 (757),2018-086A,2026-07-11T02:43:12.569952,2.13101972,.00121111,64.2969,191.7864,256.4030,103.4921,0,U,43687,999,5979,0,.113E-5,0
BEIDOU-3 M17 (C36),2018-093A,2026-07-13T06:43:23.168064,1.86228262,.0010123,54.1701,181.4111,294.0353,197.1736,0,U,43706,999,5202,0,.61E-6,0
BEIDOU-3 M18 (C37),2018-093B,2026-07-11T20:58:35.025600,1.86226285,.00080339,54.1711,181.4513,322.2876,37.6531,0,U,43707,999,5199,0,.85E-6,0
GPS BIII-1  (PRN 04),2018-109A,2026-07-13T04:30:41.415840,2.00562618,.0038528,55.6972,91.1608,197.2241,340.2980,0,U,43873,999,5559,0,-.31E-6,0
BEIDOU-3 IGSO-1 (C38),2019-023A,2026-07-13T11:51:18.021312,1.00283496,.0025735,58.7323,37.3789,224.1077,326.8165,0,U,44204,999,747,0,-.204E-5,0
BEIDOU-2 G8 (C01),2019-027A,2026-07-13T12:26:22.409952,1.00272179,.0009754,1.7214,74.4975,282.2857,265.7260,0,U,44231,999,2634,0,-.252E-5,0
